CELESTIS-02             
1 25160U 98007D   17252.31176663 -.00000017  00000-0  50243-4 0  9995
2 25160 107.9495   2.8981 0063940 216.6158 161.2709 14.21472635 15513
CELESTIS-03             
1 26034U 99070C   17252.82292215  .00007374  00000-0  49476-3 0  9992
2 26034  98.3173  93.3066 0012061 235.5803 124.4283 15.07119249958208
